{
  "links" : {
    "next" : "https://api.nasa.gov/neo/rest/v1/feed?start_date=2008-01-23&end_date=2008-01-23&detailed=true&api_key=t0TVs3DtDT2H8Oy2Zy8m2eVrNsAVKAexjcZXUckd",
    "prev" : "https://api.nasa.gov/neo/rest/v1/feed?start_date=2008-01-21&end_date=2008-01-21&detailed=true&api_key=t0TVs3DtDT2H8Oy2Zy8m2eVrNsAVKAexjcZXUckd",
    "self" : "https://api.nasa.gov/neo/rest/v1/feed?start_date=2008-01-22&end_date=2008-01-22&detailed=true&api_key=t0TVs3DtDT2H8Oy2Zy8m2eVrNsAVKAexjcZXUckd"
  },
  "element_count" : 5,
  "near_earth_objects" : {
    "2008-01-22" : [ {
      "links" : {
        "self" : "https://api.nasa.gov/neo/rest/v1/neo/3402620?api_key=t0TVs3DtDT2H8Oy2Zy8m2eVrNsAVKAexjcZXUckd"
      },
      "neo_reference_id" : "3402620",
      "name" : "(2008 CS116)",
      "nasa_jpl_url" : "http://ssd.jpl.nasa.gov/sbdb.cgi?sstr=3402620",
      "absolute_magnitude_h" : 20.8,
      "estimated_diameter" : {
        "kilometers" : {
          "estimated_diameter_min" : 0.1838886721,
          "estimated_diameter_max" : 0.411187571
        },
        "meters" : {
          "estimated_diameter_min" : 183.8886720703,
          "estimated_diameter_max" : 411.1875710413
        },
        "miles" : {
          "estimated_diameter_min" : 0.1142630881,
          "estimated_diameter_max" : 0.2555000322
        },
        "feet" : {
          "estimated_diameter_min" : 603.309310875,
          "estimated_diameter_max" : 1349.040630575
        }
      },
      "is_potentially_hazardous_asteroid" : false,
      "close_approach_data" : [ {
        "close_approach_date" : "2008-01-22",
        "epoch_date_close_approach" : 1200988800000,
        "relative_velocity" : {
          "kilometers_per_second" : "8.3882658511",
          "kilometers_per_hour" : "30197.757063906",
          "miles_per_hour" : "18763.711882292"
        },
        "miss_distance" : {
          "astronomical" : "0.1151090337",
          "lunar" : "44.7774124146",
          "kilometers" : "17220066",
          "miles" : "10700053"
        },
        "orbiting_body" : "Earth"
      } ],
      "orbital_data" : {
        "orbit_id" : "15",
        "orbit_determination_date" : "2017-04-06 09:04:21",
        "orbit_uncertainty" : "5",
        "minimum_orbit_intersection" : ".0982809",
        "jupiter_tisserand_invariant" : "2.984",
        "epoch_osculation" : "2458000.5",
        "eccentricity" : ".6391584201245617",
        "semi_major_axis" : "2.781871603256235",
        "inclination" : "8.089577437484191",
        "ascending_node_longitude" : "352.685277424872",
        "orbital_period" : "1694.743780906468",
        "perihelion_distance" : "1.003814944329598",
        "perihelion_argument" : "120.8443599713754",
        "aphelion_distance" : "4.559928262182871",
        "perihelion_time" : "2457865.454144648951",
        "mean_anomaly" : "28.68664188304278",
        "mean_motion" : ".2124214905261058",
        "equinox" : "J2000"
      }
    }, {
      "links" : {
        "self" : "https://api.nasa.gov/neo/rest/v1/neo/3525129?api_key=t0TVs3DtDT2H8Oy2Zy8m2eVrNsAVKAexjcZXUckd"
      },
      "neo_reference_id" : "3525129",
      "name" : "(2010 KV39)",
      "nasa_jpl_url" : "http://ssd.jpl.nasa.gov/sbdb.cgi?sstr=3525129",
      "absolute_magnitude_h" : 26.8,
      "estimated_diameter" : {
        "kilometers" : {
          "estimated_diameter_min" : 0.0116025908,
          "estimated_diameter_max" : 0.0259441818
        },
        "meters" : {
          "estimated_diameter_min" : 11.6025908209,
          "estimated_diameter_max" : 25.9441817907
        },
        "miles" : {
          "estimated_diameter_min" : 0.0072095135,
          "estimated_diameter_max" : 0.0161209622
        },
        "feet" : {
          "estimated_diameter_min" : 38.066244069,
          "estimated_diameter_max" : 85.1187093863
        }
      },
      "is_potentially_hazardous_asteroid" : false,
      "close_approach_data" : [ {
        "close_approach_date" : "2008-01-22",
        "epoch_date_close_approach" : 1200988800000,
        "relative_velocity" : {
          "kilometers_per_second" : "18.0393329937",
          "kilometers_per_hour" : "64941.5987771461",
          "miles_per_hour" : "40352.1839734995"
        },
        "miss_distance" : {
          "astronomical" : "0.3356743544",
          "lunar" : "130.5773162842",
          "kilometers" : "50216168",
          "miles" : "31202880"
        },
        "orbiting_body" : "Earth"
      } ],
      "orbital_data" : {
        "orbit_id" : "8",
        "orbit_determination_date" : "2017-04-06 08:57:25",
        "orbit_uncertainty" : "6",
        "minimum_orbit_intersection" : ".000366551",
        "jupiter_tisserand_invariant" : "6.235",
        "epoch_osculation" : "2458000.5",
        "eccentricity" : ".2557335781369564",
        "semi_major_axis" : ".9583461383590438",
        "inclination" : "13.92339308966943",
        "ascending_node_longitude" : "65.46708499261801",
        "orbital_period" : "342.6746853593947",
        "perihelion_distance" : ".713264851302751",
        "perihelion_argument" : "296.6818214393067",
        "aphelion_distance" : "1.203427425415337",
        "perihelion_time" : "2458169.355283913405",
        "mean_anomaly" : "182.6075493581558",
        "mean_motion" : "1.050559073607771",
        "equinox" : "J2000"
      }
    } ]
  }
}